name,phone,email,address,postalZip,list,country
Kenyon Sosa,1-926-430-6882,tempus.risus@protonmail.ca,995-8077 Augue Avenue,35638,13,Argentina
Owen Crawford,1-519-815-6531,proin.ultrices.duis@hotmail.edu,413-1653 Purus Ave,551332,7,"Bonaire, Sint Eustatius and Saba"
Ray Cochran,1-224-607-2296,fermentum.risus@protonmail.edu,Ap #506-1857 Aliquam Av.,69475,1,Palau
Geoffrey Vargas,(637) 327-1562,ligula.aenean@google.ca,1042 Amet St.,69641,13,Maldives
Tamekah Gregory,(504) 696-1313,dolor.nonummy@icloud.net,189-3104 Sed Av.,42-69,9,Palau
Nora Cantu,(753) 797-2780,quisque.ac@google.couk,189-362 Nibh. Street,9890,19,Brazil
Dora Wiggins,(759) 586-8377,magna.ut.tincidunt@hotmail.couk,"P.O. Box 855, 333 Pharetra Ave",3688,9,Poland
Shaeleigh Dawson,(135) 715-1486,mollis@protonmail.com,"Ap #694-3390 Lorem, St.",12402,11,Ethiopia
Yael Nelson,1-453-595-4243,mauris.ut.quam@aol.org,"P.O. Box 326, 7953 Fringilla Avenue",35975,7,Switzerland
Danielle Huber,1-785-509-1714,cras.dolor@icloud.ca,Ap #770-4635 Egestas. Rd.,27725-25307,15,Cape Verde
Barrett Cain,1-422-849-2775,cursus.integer.mollis@google.org,"4029 Ac, Avenue",44170,5,Turks and Caicos Islands
Lynn Greene,(857) 575-1602,vulputate@icloud.com,"P.O. Box 679, 590 Aliquam Rd.",75656,9,New Caledonia
Yael Carey,(679) 662-3548,amet.ornare@icloud.couk,"510-1941 Amet, St.",6237,7,Armenia
Alfreda Henson,(336) 633-4671,donec.felis@outlook.edu,"8426 Felis, Street",40118,19,Zambia
Cleo Stephens,1-540-338-0917,elit.pellentesque.a@yahoo.edu,"P.O. Box 496, 9408 A, Av.",B2P 8M5,13,Equatorial Guinea
Montana Valentine,(666) 807-7537,phasellus.nulla.integer@yahoo.net,"616-3009 Sed, Road",7283-7383,13,Uruguay
Carly Benson,(586) 747-2245,semper.auctor@hotmail.ca,"P.O. Box 427, 7714 Ac Rd.",1329-8268,5,Estonia
Paula Graves,1-269-584-1744,arcu.vivamus@hotmail.couk,Ap #406-5649 Consequat Street,771,1,Isle of Man
Solomon Reese,1-987-944-7788,orci.donec.nibh@hotmail.org,"Ap #971-9987 Auctor, Avenue",B42 6SX,17,Uruguay
Vernon Bernard,1-881-412-7085,elit@yahoo.org,"P.O. Box 403, 3288 Eu Av.",6822-2831,15,Gambia
Patricia Savage,1-247-208-1976,arcu.vel.quam@yahoo.ca,Ap #646-7279 Proin Avenue,10472,1,Iceland
Yvette Oliver,(722) 612-4573,mus.donec.dignissim@protonmail.ca,864-1361 Ac Ave,50209,9,Haiti
Molly White,1-575-855-2137,lectus.quis.massa@protonmail.ca,Ap #931-614 Nulla Rd.,351524,13,Grenada
Moses Wise,1-739-977-4343,ut.pellentesque@outlook.com,744-2791 Molestie Street,12502,15,Tokelau
Tarik Lyons,1-273-418-6300,fermentum.convallis@protonmail.net,Ap #114-9609 Donec Rd.,587885,1,Nicaragua
Fritz Noel,1-561-312-2988,malesuada@protonmail.org,588-7494 Molestie Rd.,254742,9,Haiti
Fleur Long,1-566-870-0763,enim.suspendisse@icloud.com,273-4249 Vel Street,L8B 3J3,1,"Korea, North"
Ila Pope,1-304-194-8645,ac@protonmail.couk,486-5028 Elit. Av.,188955,11,Niue
Moses Lindsay,1-857-837-8578,eget.ipsum@hotmail.com,2000 Amet Rd.,93188-677,11,Spain
Serina Church,(668) 862-5922,erat.volutpat@yahoo.couk,"121-6723 Ornare, Ave",80685,15,Gibraltar
Bradley Bailey,1-646-894-9348,pharetra.ut.pharetra@yahoo.couk,"866-111 Id, Rd.",20650,3,Zambia
Vanna Mcmahon,1-683-268-0211,id.mollis.nec@icloud.com,4944 Lorem. Road,914124,11,Micronesia
Nissim Ellison,1-616-436-8947,porttitor.vulputate@protonmail.org,Ap #258-1372 Metus Av.,4807,17,Kyrgyzstan
Mona Roberson,(717) 694-5412,lobortis.quis@aol.com,959-5355 Erat. Rd.,17162,7,Thailand
Christian Stark,1-152-334-1513,rutrum.non.hendrerit@icloud.edu,"907-4567 Nunc, St.",738,9,Gibraltar
Mason Wilkerson,(106) 882-5988,placerat@hotmail.edu,144-5821 Proin Avenue,432446,3,United Kingdom (Great Britain)
Keane Copeland,1-782-651-2177,fringilla.purus@hotmail.ca,159-3205 Metus Rd.,635555,11,Cayman Islands
Ocean Cameron,1-566-486-8057,quam.curabitur@protonmail.com,"890-7240 Non, Ave",5658,9,Monaco
Madonna Rhodes,(622) 234-3834,molestie.orci.tincidunt@icloud.org,4598 Et Ave,3467-9866,13,Sweden
Brittany Hinton,(509) 225-3326,mauris.blandit.enim@outlook.org,199-1807 Hendrerit Street,49683,5,Belarus
Pamela Kerr,(431) 244-3368,pellentesque@google.com,986-3344 Sit Rd.,YR0U 5TD,11,United Kingdom (Great Britain)
Abra Bryant,(689) 517-1460,donec.tincidunt.donec@yahoo.edu,617-937 Risus. St.,37-586,3,Tanzania
Adara Merritt,(537) 224-8648,eleifend.non.dapibus@icloud.edu,"P.O. Box 536, 1779 Suspendisse St.",10551,9,Zimbabwe
Candice Moore,1-831-802-8047,tellus.justo@yahoo.edu,3788 Enim St.,88788,9,Lithuania
Chancellor Joyce,1-276-578-4422,lacus.pede.sagittis@hotmail.ca,"P.O. Box 587, 4770 Elementum, Rd.",241708,1,Rwanda
Hall Rocha,(609) 838-3255,in.molestie.tortor@yahoo.net,4926 At Avenue,45749,11,Cyprus
Ruby Everett,1-887-829-6672,sodales.purus.in@google.couk,356-9271 Iaculis Road,839579,5,Zimbabwe
Beck Bradshaw,1-881-793-1112,urna.nec@icloud.ca,Ap #904-4387 Nulla Rd.,343142,17,Uganda
Shannon Knowles,(968) 182-1475,egestas.urna@google.com,176-1291 Blandit Av.,50312,17,Paraguay
Adara Clark,(856) 575-5781,sodales.mauris.blandit@protonmail.org,773-6066 Erat St.,42103,7,Barbados
Rhea Garrett,(243) 971-0133,metus.eu@google.org,5033 Nullam Avenue,7724,13,Macedonia
Christen Davenport,1-881-953-8430,vulputate.lacus@google.com,732-6080 A St.,70287,19,Egypt
Tasha Hodges,(636) 457-5416,lectus.ante@yahoo.com,928-8348 Vestibulum St.,432490,1,Venezuela
Clark Morales,1-440-226-1676,dictum.eleifend.nunc@yahoo.edu,Ap #419-6405 Vulputate Avenue,50269,7,French Guiana
Chase Spence,(556) 567-5617,nibh@hotmail.org,Ap #157-9659 Nulla Rd.,456854,17,Belgium
Oren Gomez,(835) 427-4611,cras.pellentesque@outlook.com,Ap #468-7484 Rutrum. Rd.,44754-87538,9,Mauritania
Vera Bartlett,(625) 989-8458,purus.maecenas@protonmail.couk,1293 Leo. Rd.,6176,9,Guinea
Honorato Pugh,1-774-345-6894,molestie.sed.id@protonmail.edu,Ap #732-5507 Nibh Av.,18-58,19,Israel
Avram Villarreal,(378) 129-2276,phasellus.vitae@google.ca,"P.O. Box 850, 5176 Neque St.",84-62,17,Hungary
Petra Dennis,1-512-736-8638,lobortis.mauris.suspendisse@aol.org,867-9272 Dictum. St.,41035,7,Viet Nam
Karen Weeks,1-218-542-7689,nascetur.ridiculus.mus@aol.edu,9031 Ut St.,26048,11,Albania
Lucius Solis,1-161-362-6188,gravida.mauris@google.ca,850-9407 Amet Av.,8133,1,Senegal
Beverly Mathis,(165) 608-6588,mus@yahoo.net,728-207 Nam Rd.,40218,9,Argentina
Orlando Vega,1-621-488-6337,turpis@aol.com,"P.O. Box 727, 8593 Quis Rd.",52437,1,Suriname
Jacob Woods,1-819-323-2732,vulputate.risus@protonmail.com,227-5259 Ut Road,755517,1,Cuba
Zelenia Lara,(422) 314-1532,faucibus.leo@yahoo.com,942 Libero Street,212431,15,"Virgin Islands, United States"
Ginger Burris,(871) 552-2590,ligula@yahoo.net,4247 Massa. St.,633485,13,Guinea
Ina Mcconnell,1-871-781-2162,elementum.sem.vitae@outlook.org,"P.O. Box 767, 6607 Non, St.",27374,7,Sao Tome and Principe
Yardley Dalton,(744) 278-1757,mattis@yahoo.org,Ap #584-2424 Id Rd.,7715,3,Bahrain
Tarik Rogers,(381) 519-2521,nec.luctus@google.edu,Ap #293-8908 Vivamus Av.,N4E 5NW,13,Gambia
Garth Emerson,1-744-265-6121,dui@google.couk,Ap #286-8292 Eu Rd.,428077,7,Chile
Jade English,(531) 355-0146,dui.semper.et@aol.com,618-8653 Egestas. Street,88161,15,Andorra
Jemima Sullivan,1-518-282-2170,neque.morbi.quis@outlook.couk,1688 Faucibus. Rd.,42469,3,Qatar
Rogan Mckee,1-762-525-4333,a.odio@icloud.net,Ap #334-2610 Vulputate Road,16-517,3,Lesotho
Dalton Le,1-771-854-2285,interdum.feugiat@google.ca,Ap #107-3305 Eu St.,559677,3,Benin
Galena Guthrie,(214) 388-9876,proin@hotmail.com,457-2805 Massa Road,388416,15,Greece
Yolanda Shannon,1-931-311-8485,lorem.donec.elementum@protonmail.couk,Ap #178-2288 Venenatis St.,4602 HP,7,Turkmenistan
Quail England,1-153-657-2657,pretium.neque@icloud.edu,Ap #154-3836 Fusce Av.,33221,17,Barbados
Kibo Myers,1-512-146-1357,ut.sem.nulla@google.ca,Ap #528-5421 Enim. St.,3205,17,Mexico
Daria Mccarthy,(748) 786-1866,felis@icloud.edu,"P.O. Box 225, 5967 Velit. St.",2045,19,Albania
Mechelle Ramos,(698) 846-9503,curabitur.massa@yahoo.ca,"P.O. Box 201, 7135 Fusce Rd.",412218,15,Honduras
Driscoll Callahan,1-617-439-8166,erat.nonummy@protonmail.com,2700 Vehicula. St.,47-23,13,Bhutan
Evan Maynard,1-854-714-6421,tincidunt.tempus@icloud.org,"P.O. Box 428, 3763 Nam St.",6448,7,CÃ´te D'Ivoire (Ivory Coast)
Amir Nieves,1-354-662-9258,dapibus.id@protonmail.edu,Ap #781-6099 Proin Avenue,64626,1,"Korea, North"
Heidi Glenn,1-157-647-5236,in.mi@outlook.net,Ap #526-6524 Sem Av.,9935,15,Holy See (Vatican City State)
John Scott,1-406-859-0717,varius.nam@icloud.org,Ap #355-6802 Ipsum. Rd.,685891,15,Sint Maarten
Yoshi Farmer,1-676-461-2951,diam.at.pretium@aol.couk,979-1880 Nunc Street,6337,9,Tuvalu
McKenzie Sherman,1-456-595-4201,blandit@aol.couk,Ap #802-3614 Vestibulum Av.,86W 6J6,5,Iceland
Avram Langley,1-815-539-3847,vestibulum.neque@hotmail.couk,578-6892 Porttitor Avenue,531107,13,Macedonia
Kim Johnston,(363) 813-4684,fusce@outlook.com,"P.O. Box 286, 9997 Maecenas St.",363873,15,"Bonaire, Sint Eustatius and Saba"
Damon Noel,(922) 705-7607,lobortis.nisi.nibh@yahoo.org,"670-1343 Nec, Rd.",48656,15,Brazil
Fuller Gibson,1-461-930-1254,magna.praesent@protonmail.edu,214-3527 Massa. Rd.,84755,9,Monaco
Pascale Cook,(184) 605-7652,nec.ante.maecenas@aol.ca,Ap #275-607 Et Rd.,62535,1,Syria
Jescie Oliver,(132) 275-8968,quis.tristique.ac@google.net,2254 Est Rd.,125489,7,Moldova
Hilda Salinas,1-742-537-6738,neque.sed@yahoo.ca,"Ap #542-3937 A, St.",5924,13,Guernsey
Barbara Mullins,(799) 805-3841,molestie.tortor@hotmail.edu,Ap #715-482 In Av.,38798,15,El Salvador
Halla Woodard,(418) 637-8699,nunc@icloud.org,Ap #352-8503 Ipsum Rd.,174312,3,"Saint Helena, Ascension and Tristan da Cunha"
Sierra Strong,(731) 668-5643,mus.proin@icloud.couk,Ap #541-2222 Felis. Avenue,752065,15,Israel
Brielle Phillips,1-620-125-6887,luctus@icloud.com,"170-8079 A, St.",32H 2W5,9,Vanuatu
Sade Mccall,(452) 644-2473,orci.lobortis@yahoo.net,"Ap #900-7306 At, Rd.",93768,7,San Marino
Abbot Vazquez,1-173-517-2344,massa@protonmail.edu,"Ap #469-6223 Tempor, Road",1772 SK,15,Chad
Emmanuel Dawson,(127) 540-5017,molestie.tellus@outlook.com,445-1868 Nec Road,25847,3,Jersey
Brent Morrison,1-457-859-4583,lacus@hotmail.net,Ap #876-8826 Et Avenue,75075-52887,7,"Saint Helena, Ascension and Tristan da Cunha"
Wesley Day,(744) 295-8895,non.dui@aol.couk,899-5032 Neque Rd.,4707,17,Reunion
Kiayada Young,(641) 236-0164,scelerisque.sed@icloud.com,Ap #909-3504 Velit Rd.,7973,5,South Africa
Ima Phillips,(541) 678-2518,aenean.euismod@aol.couk,"464-8765 Consectetuer, Rd.",3632,9,Macao
Karina Hurley,1-656-455-1433,amet.consectetuer@icloud.com,4434 Neque St.,933662,7,Equatorial Guinea
Sara Fry,(752) 475-3118,magnis@aol.org,Ap #293-7933 Metus. Street,510174,11,French Polynesia
Cedric Sandoval,1-159-796-5357,in@protonmail.com,"Ap #284-8854 At, St.",4393,5,Puerto Rico
Neil Trujillo,(875) 717-6002,mauris.sapien@aol.edu,412-8934 Purus Road,21433,11,Swaziland
Kennan Shepherd,1-926-328-2211,sed.sem.egestas@hotmail.ca,772-8099 Lacus. Ave,6863-1138,5,Iran
Britanni Coffey,1-561-974-5237,aliquam.tincidunt@protonmail.couk,Ap #923-3811 Odio. Rd.,2164,11,American Samoa
Preston Wise,1-747-262-6588,enim@hotmail.edu,7369 Magna. Rd.,72568,1,British Indian Ocean Territory
Nola Snyder,(910) 768-3364,rutrum.justo@google.ca,181-7467 Nec Street,6354,3,Fiji
Guy Hines,1-285-426-9506,rhoncus.nullam@aol.org,926-9105 Lacus. St.,42-89,15,Ukraine
Haviva Randall,1-414-885-6841,nullam.enim@aol.com,Ap #969-826 Lacus. St.,7281,15,Taiwan
Nasim Mann,(612) 140-7748,nec.malesuada@google.edu,748-8776 Justo Street,86859,5,Comoros
Kyra Pena,1-172-666-0864,consectetuer.cursus@yahoo.com,2974 Integer Street,3444,1,Marshall Islands
Arthur Lowery,(726) 546-7263,a.mi@hotmail.org,"P.O. Box 163, 9303 Aliquet Road",5754 UO,11,Oman
Kirby Knight,1-114-776-7403,donec.est.mauris@protonmail.org,Ap #383-5942 Vulputate Rd.,75708,11,Jersey
Sydney Rose,1-477-747-8506,ante.ipsum@google.ca,204-2751 At Avenue,325146,9,Equatorial Guinea
Nicole Wolf,1-778-230-8638,in.scelerisque@yahoo.org,567-5758 Ligula. Av.,09818-98601,13,Bahrain
Tanya Mcgowan,1-461-261-5821,nulla.in.tincidunt@aol.com,"2426 Et, Road",5274-9512,5,Belgium
Thomas Hansen,(757) 433-9631,interdum.enim@google.edu,Ap #422-9936 Mi Rd.,5085-6277,19,Algeria
Alyssa Bridges,1-214-520-8171,eu.augue@outlook.ca,"P.O. Box 972, 741 Sed Street",444146,7,Mozambique
Scott Dunlap,1-766-400-6712,aliquam.rutrum@protonmail.net,7164 Eu Rd.,7184,3,Saint Martin
Phoebe Foster,(354) 611-4124,fusce@google.com,783-9120 Ligula. Road,38-64,13,Kiribati
Madison Hurley,(762) 130-0816,ipsum.sodales@outlook.net,"371-1210 Eu, Avenue",33343,9,Niger
George Robles,(563) 678-7288,urna.justo@hotmail.org,569-8526 Est. Rd.,32250,17,South Africa
Kadeem Phelps,(784) 662-6573,maecenas.iaculis@google.net,"P.O. Box 686, 8608 Donec Ave",785822,7,Australia
Owen Doyle,1-848-242-6665,aliquam.arcu.aliquam@yahoo.ca,Ap #360-5164 Nisl. Ave,6847 YO,1,Cocos (Keeling) Islands
Ross Ellis,1-508-289-2797,eros.nec@icloud.com,"P.O. Box 249, 2828 Aliquam Avenue",1253,19,Pitcairn Islands
Dorothy Stein,(488) 588-4052,justo.praesent@hotmail.edu,"479-7188 In, Rd.",7185,3,Syria
Iris Gonzales,1-210-445-1975,nisl.arcu@icloud.edu,519-1859 Sed St.,533876,17,Bosnia and Herzegovina
Burke Camacho,1-505-810-1054,tristique.senectus@icloud.edu,1762 Malesuada Rd.,13131,15,Yemen
Henry Hardy,1-273-160-5345,elementum.lorem.ut@google.edu,Ap #983-4860 Quisque Rd.,70129,11,Poland
Yardley Calderon,1-797-838-8184,condimentum.eget@aol.edu,"P.O. Box 262, 2452 Suspendisse Road",22559,13,Jersey
Yoko Cross,(603) 877-7622,ligula.consectetuer@yahoo.org,476-6023 Felis Rd.,5472,5,Angola
Caesar Bernard,1-815-515-3804,accumsan.sed@google.net,Ap #889-9950 In Avenue,46584,11,"Virgin Islands, British"
Sydnee Bowers,1-918-748-5054,euismod.mauris@yahoo.ca,"5378 Montes, Av.",74-19,17,South Georgia and The South Sandwich Islands
Adrienne Cervantes,(211) 723-2331,felis.adipiscing.fringilla@protonmail.net,4922 Mi St.,67134,11,Rwanda
Jorden Conway,1-725-686-2828,id.mollis.nec@google.net,963-9388 Nisi Av.,76543,7,Hungary
Sawyer Baldwin,1-186-566-0127,pede.nonummy@yahoo.org,Ap #636-6942 Tempor St.,24-63,1,Central African Republic
Jacob Olsen,1-249-943-8823,eget.odio@hotmail.net,"510-7568 Nec, Ave",27762,7,Antigua and Barbuda
Chaney Barry,1-934-524-9708,in@icloud.couk,Ap #906-6245 Adipiscing St.,74861,1,Germany
Wesley Osborn,(588) 839-9832,aliquam.erat.volutpat@yahoo.net,129 Neque Av.,50066,15,"Congo, the Democratic Republic of the"
Glenna Powell,(611) 938-2728,et@outlook.ca,705-1769 Ligula St.,36177,13,Greenland
Chase Talley,1-535-333-9428,nisi@yahoo.org,279-169 Natoque Ave,5325,13,Mexico
Blake Fox,(573) 363-3653,tempus.eu@outlook.edu,5348 Blandit Road,423135,15,Australia
George Avila,1-285-151-8002,vitae.risus@hotmail.com,122 Erat. St.,26241,19,Bangladesh
Brody Duran,(128) 744-7840,lorem.ut@google.edu,855-2790 Ante. Road,20280,9,Rwanda
Olympia Bishop,(720) 426-7486,et.rutrum@google.couk,7143 Curae Ave,5789,15,Liechtenstein
Leigh Rojas,1-203-292-8728,magna.ut@aol.couk,904-6993 Vitae Rd.,39645-33404,19,"Virgin Islands, British"
Willa Hyde,(516) 313-5801,semper.rutrum.fusce@icloud.ca,3562 Sodales Ave,441623,5,Isle of Man
Plato Delacruz,(361) 571-7318,arcu.imperdiet.ullamcorper@aol.net,Ap #599-7295 Neque Road,231786,9,Macedonia
Hunter Floyd,(473) 830-7262,urna.suscipit.nonummy@protonmail.edu,8949 Lacus. Ave,19-892,1,Singapore
Baker Vincent,1-505-373-0281,ipsum@aol.com,Ap #630-8794 Fringilla Avenue,13739,11,Djibouti
Quon Ryan,(610) 435-2621,cursus@hotmail.edu,"P.O. Box 825, 5912 Euismod Av.",3447,3,Palau
Jordan Castro,1-910-661-7434,eget@outlook.org,275-2949 Mauris Av.,88317,17,Somalia
Salvador Strickland,1-824-333-8782,malesuada.fames.ac@aol.net,Ap #294-1977 Dis St.,BO52 6NV,19,Somalia
Keith Day,1-611-294-1768,curabitur.dictum@aol.com,Ap #786-1672 Rutrum Avenue,2185,3,Belgium
Quinlan Cummings,(598) 691-8448,a.neque.nullam@icloud.org,740-223 Nulla. Av.,236598,13,Dominica
Lee Berry,1-726-583-1554,phasellus.vitae@icloud.org,Ap #395-4552 Cras Avenue,2330 BY,3,Saint Kitts and Nevis
Galena Willis,(710) 813-7602,sed@aol.org,728-8860 Gravida Avenue,71842-01717,9,Uzbekistan
Whitney Charles,1-193-477-1836,nec.leo@google.edu,"Ap #271-7441 Aliquet, Avenue",25114,19,Antarctica
Judith Reese,(372) 552-1563,lorem@icloud.com,"5272 Ut, Rd.",27553,19,Dominican Republic
Sylvia Brooks,(387) 575-9183,tellus.eu.augue@aol.couk,464-271 Interdum Av.,5345 IP,13,Fiji
Naida Fuller,1-448-774-5823,penatibus@aol.org,"P.O. Box 971, 512 Magna. Street",61-224,13,Bahrain
Mara Head,1-538-419-1415,gravida.molestie@protonmail.edu,"Ap #333-9465 Tempor, Avenue",544373,7,Cameroon
Hasad Sherman,1-275-225-6862,ornare.lectus.ante@yahoo.edu,"9532 Eu, Avenue",8545 RW,15,Slovakia
Brock Lambert,1-588-722-6465,gravida@outlook.couk,"P.O. Box 180, 7296 Non Av.",2257 WP,19,Hungary
Hamish Medina,(391) 185-7463,vulputate.nisi@outlook.net,"542-1700 Luctus, Rd.",182697,13,South Georgia and The South Sandwich Islands
Allen Singleton,(652) 844-6788,vulputate@outlook.couk,692-8354 Augue. Road,3477 GG,3,Guatemala
Edward Ayala,1-347-521-0247,lobortis@aol.ca,5326 Sit Street,0729-5621,19,Cook Islands
Arden Wiley,(394) 788-1475,ac.nulla@icloud.org,266-7874 Enim Rd.,E6Y 5B9,7,Slovakia
Jeanette Flynn,1-607-732-9891,placerat.eget@yahoo.edu,5947 Aliquam Av.,581447,9,Falkland Islands
Emi Macdonald,1-119-724-4921,pellentesque.tincidunt@hotmail.couk,"P.O. Box 720, 6767 Nisi St.",617965,5,Somalia
Cassady Raymond,1-653-541-2750,sagittis.duis@outlook.org,532-1983 Arcu. St.,52258-246,19,Niue
Lucius Hobbs,(104) 574-2451,dolor@protonmail.org,"P.O. Box 878, 8984 Taciti Road",8108,13,France
Echo Armstrong,(821) 234-8946,eget.mollis.lectus@google.org,899-1405 Nunc Road,78360,19,Myanmar
Rooney Ellison,1-213-928-9338,cubilia@google.ca,170-2216 Nullam Avenue,75-58,1,Jamaica
Hammett Conrad,(313) 256-4886,mauris.integer@icloud.couk,403-1222 Neque. St.,14707,15,Montserrat
Ashton Ware,(903) 378-8183,semper.pretium@icloud.com,217-4785 Enim. St.,7324,9,Swaziland
Maryam Barnett,1-634-314-0358,ridiculus.mus@aol.org,Ap #185-2466 Eget St.,40606,17,Zimbabwe
Britanney Clements,(131) 877-4616,augue.ac@yahoo.ca,Ap #431-6412 Quisque Avenue,464575,17,Dominican Republic
Alden Case,(649) 369-5666,turpis.vitae.purus@protonmail.org,2886 Commodo St.,519739,1,Gibraltar
Ingrid Parker,1-253-572-7993,mauris.vestibulum@hotmail.net,6140 Dolor St.,6515,15,Ethiopia
Sybil Nguyen,1-563-350-6393,a.tortor@icloud.edu,310-2315 Velit Street,79610,15,Timor-Leste
Drake Rodgers,1-768-248-2305,nulla@protonmail.couk,363-370 Ridiculus Rd.,475507,7,Dominica
Sarah Nelson,(208) 656-1411,lacus.aliquam@yahoo.ca,"P.O. Box 443, 8587 Dictum Avenue",Y2P 3V4,7,Angola
Xena Mathews,(614) 844-8378,nunc.mauris@outlook.edu,"Ap #200-1593 Et, Street",454437,17,Bulgaria
Kamal Kidd,(177) 576-1675,dui@hotmail.edu,Ap #385-598 Dictum Rd.,4507-3851,5,Saudi Arabia
MacKenzie Strickland,(589) 809-8882,dignissim.maecenas.ornare@yahoo.com,"Ap #698-2002 Mauris, Av.",324484,9,Ireland
Amethyst Calhoun,(946) 685-2408,quis.tristique@hotmail.ca,"Ap #970-5432 Montes, Avenue",4585,15,Kiribati
Patricia Fletcher,1-414-791-3536,molestie.pharetra.nibh@icloud.com,389-9971 Felis Av.,113144,7,Burundi
Emerson Ortiz,1-576-475-4585,mi@google.com,"P.O. Box 427, 2945 Eget St.",6430,3,Fiji
Avye Trujillo,(682) 155-4932,rutrum.non@aol.com,"P.O. Box 315, 1778 Vulputate, Rd.",33334,9,Jordan
Duncan Hardy,1-164-743-6898,ullamcorper.duis@outlook.ca,"4862 Odio, Rd.",5062,19,Russian Federation
Dora Davis,(823) 297-7813,tempus.non.lacinia@google.com,8715 Est Av.,648837,11,Brazil
Chiquita Leon,1-758-480-7140,vivamus@yahoo.org,2432 Viverra. Ave,362614,13,Greece
Lila Mack,(749) 617-8531,sit.amet@yahoo.org,Ap #918-4988 Facilisi. Rd.,9213,17,Hungary
Paula Ferrell,(739) 976-1721,curabitur.vel.lectus@google.ca,Ap #102-8445 Mauris Rd.,412974,3,Mongolia
Jeanette Rosario,(656) 863-1252,aliquam.arcu@aol.net,"Ap #476-8706 A, Street",86675,5,"Palestine, State of"
Nevada Romero,1-837-518-7154,metus@icloud.org,725-4356 Quisque Road,857,15,Somalia
Kieran Montoya,(894) 608-3257,at.sem@yahoo.net,"3607 Erat, Ave",634740,15,Central African Republic
Hilel Leblanc,1-531-265-8629,et.magnis.dis@icloud.ca,"P.O. Box 231, 1996 Sed, Road",412725,5,French Polynesia
Germane Stout,(465) 370-7166,nec.quam.curabitur@aol.edu,"P.O. Box 616, 6912 Molestie. St.",833873,13,Luxembourg
Kadeem Holder,1-265-317-3658,tempor.diam@outlook.net,"Ap #605-2367 Purus, Avenue",853774,9,Uruguay
Harrison Newman,(683) 841-9982,nunc@protonmail.com,Ap #292-5441 Dictum Ave,682253,9,Nauru
Galena Colon,(207) 686-4687,cursus.vestibulum@outlook.net,Ap #136-1760 Ligula Av.,23-67,15,United States Minor Outlying Islands
Desirae Tyson,(868) 350-0025,non.nisi.aenean@icloud.edu,"P.O. Box 465, 1745 Tempor Rd.",7533,15,Ecuador
Angelica Mann,(355) 779-5941,ut@yahoo.net,4021 Enim St.,41743,7,Belize
Georgia Maynard,(783) 762-6722,tempor.est@protonmail.org,"307 Non, Ave",59896,17,"Virgin Islands, United States"
Emmanuel Bradford,1-585-874-5381,nisi.cum@icloud.com,Ap #958-5835 Nam Road,81368,11,Austria
Richard Watson,1-772-613-8553,bibendum@google.org,Ap #668-945 Adipiscing Road,697225,7,Papua New Guinea
Eaton Decker,(841) 275-5517,at.pede@yahoo.ca,"P.O. Box 761, 7989 Lacinia Av.",59-831,11,Syria
Camden Franks,(785) 778-0412,ut@hotmail.couk,696-4955 Ornare Av.,728153,7,Nicaragua
Demetrius Soto,(854) 554-6874,vestibulum@icloud.edu,"P.O. Box 899, 8029 Faucibus Rd.",A4W 5L5,1,Ethiopia
Stone Burton,(866) 953-2765,massa@yahoo.couk,151-9653 Erat Ave,3512,5,Laos
Jamalia Torres,1-186-617-1235,sem.ut.dolor@aol.couk,"372-2128 Orci, Avenue",2740,19,Benin
Sasha Carter,1-653-487-5994,aliquet.diam@outlook.org,8302 Mattis. Street,7443-3258,19,Estonia
Adrienne Page,1-859-641-2271,amet.risus.donec@google.couk,Ap #626-8320 A Rd.,71302,5,"Congo, the Democratic Republic of the"
Branden Ewing,1-451-883-8671,nunc.sed@yahoo.com,Ap #248-3752 Eleifend Road,70369,7,Equatorial Guinea
Whitney Ayers,1-216-400-8159,non.sollicitudin.a@yahoo.couk,"676-5875 Orci, Av.",458740,15,Anguilla
Dolan Wiley,(510) 317-5058,placerat@aol.couk,"P.O. Box 256, 9828 Egestas Av.",5256,7,Uganda
Richard Bates,(703) 762-5762,nulla.interdum@outlook.net,"4666 Montes, St.",P33 6MM,11,Montenegro
Solomon Osborne,1-385-317-1421,curae@icloud.com,Ap #333-3940 Dolor Av.,521122,11,Austria
Haviva Daniel,(474) 888-0618,mi.fringilla@hotmail.com,"Ap #779-611 Non, Rd.",VH87 3PG,3,Moldova
Nerea Schwartz,(704) 742-4872,class@protonmail.net,497-4881 Ipsum Rd.,86280,17,Saint BarthÃ©lemy
Quemby O'connor,1-517-215-5122,et.ipsum@google.edu,733-7893 Proin Rd.,212797,5,Costa Rica
Buckminster Brown,1-307-197-3841,a.auctor.non@hotmail.org,"4958 Consectetuer, St.",12416,17,Bermuda
Nathaniel Cole,(111) 275-8422,vel.convallis@outlook.com,892-4466 Amet St.,5916,3,Qatar
Aidan Mathis,1-265-842-0067,habitant.morbi@protonmail.edu,"P.O. Box 533, 9003 Leo. St.",9484,1,"Korea, North"
Boris Austin,1-479-822-3756,sed@protonmail.com,Ap #978-503 Nunc Avenue,127326,3,Myanmar
Brian Hansen,(666) 367-2321,a.mi.fringilla@hotmail.net,"Ap #125-3717 At, Avenue",7107 FQ,3,Malawi
Tyler Dodson,1-711-736-8511,phasellus.nulla@hotmail.couk,"140-3269 Ut, Road",79-611,1,Lithuania
Shad Jimenez,(700) 695-2521,sapien.cras.dolor@yahoo.ca,600-9743 Quam Rd.,75915,1,Jamaica
Leroy Ferguson,1-478-367-8489,mi.tempor.lorem@protonmail.couk,750-8110 Nunc Road,29565,1,Japan
Melodie Anderson,(432) 548-6212,at@yahoo.com,Ap #326-5399 Egestas Rd.,645591,1,Nicaragua
Signe Washington,1-332-824-2876,neque.venenatis@outlook.ca,9762 Donec Road,1324,5,"Bonaire, Sint Eustatius and Saba"
Yen Strickland,(619) 885-1617,mauris.morbi@hotmail.com,1856 Convallis St.,26366,19,Montserrat
Tallulah Clark,(264) 481-6636,ut@outlook.org,"P.O. Box 278, 6155 Id, Rd.",9675,19,Saint Kitts and Nevis
Winifred Golden,1-445-151-4753,arcu.imperdiet.ullamcorper@aol.couk,1080 Vel Rd.,5346,1,Tajikistan
Portia Reeves,1-866-949-1499,interdum.libero.dui@icloud.couk,422-6459 Lectus St.,53648,9,Dominican Republic
Logan Tran,(345) 868-0735,donec@google.couk,Ap #909-9921 Risus. Ave,863482,19,Greece
Garrison Reed,1-456-760-5674,vulputate.eu.odio@hotmail.edu,"Ap #563-6597 Ac, Rd.",37-64,5,Jordan
Sophia Cote,1-283-117-5270,sit.amet@google.com,4820 Donec Street,68972,15,Zambia
Mallory Watson,(657) 251-8485,ante.maecenas@hotmail.net,5131 Velit St.,305112,3,Iran
Evelyn Shepherd,(609) 427-3048,vivamus.rhoncus@protonmail.ca,740-1768 Ante Rd.,51767,3,Burundi
Guy Erickson,(357) 144-8555,aliquam@outlook.ca,1703 Orci Av.,1446,19,Micronesia
Alice Tran,(547) 294-5417,sit@outlook.couk,"794-4649 Quis, Ave",R7L 0N3,7,Norfolk Island
Silas Melton,(976) 970-0537,ipsum.porta.elit@protonmail.edu,"P.O. Box 565, 9505 Vulputate, St.",184595,5,Iraq
Marsden Padilla,1-662-877-0651,et.ipsum@google.couk,5697 Sem Rd.,91360,19,Papua New Guinea
Inga Berger,1-477-609-5615,fusce.aliquam@google.com,839-8951 Congue Avenue,58266-321,1,"Virgin Islands, United States"
Shannon Grant,1-102-782-8219,proin.non.massa@google.net,"222-221 Adipiscing, St.",9328,15,El Salvador
Octavia Watkins,(887) 815-3374,maecenas@google.couk,Ap #877-2047 Ante Rd.,218874,3,Ireland
Kibo Brock,(778) 466-9549,dapibus.rutrum@hotmail.net,841-312 Odio Ave,658472,5,Lesotho
Xavier Hatfield,1-345-684-0425,augue@yahoo.edu,Ap #266-4412 Auctor Av.,27678,11,Portugal
Sheila Velasquez,(977) 235-1586,erat.sed@google.ca,269-6999 Luctus St.,1435,9,Bermuda
Prescott Sloan,(212) 554-1983,phasellus@yahoo.org,Ap #930-7428 Interdum St.,316743,9,Liechtenstein
Rafael Battle,1-889-322-5956,in.faucibus@yahoo.net,Ap #662-1470 Aliquam Rd.,69-79,19,Malawi
Roanna Gaines,1-284-584-4876,lorem.lorem@yahoo.net,700-977 Elementum Ave,9117,9,Guinea
Jessamine Carey,(693) 535-2718,elit.pretium@google.couk,677-4573 Luctus St.,514445,17,Bermuda
Cailin Lynn,(596) 378-3642,cras.vehicula@icloud.com,Ap #392-7516 Et Av.,989117,7,Marshall Islands
Simon Nicholson,1-577-790-3531,ante.ipsum@aol.net,"470 Ut, Road",336985,3,Venezuela
Dane Mcleod,1-466-653-2711,et.magna@protonmail.com,"P.O. Box 232, 8705 Mus. Ave",22874,5,Oman
Jena Russell,1-378-244-8668,donec.at@outlook.com,275-7563 Tellus Av.,473685,5,Viet Nam
Margaret Cervantes,(235) 448-4177,velit@protonmail.ca,"P.O. Box 293, 4859 Pede, St.",6678,5,Seychelles
Darrel Gibbs,1-513-839-1128,elementum@aol.com,Ap #545-9088 Diam Avenue,836962,9,Guam
Ila Mckinney,(242) 812-0115,in.lobortis@google.com,509-5391 Cubilia Ave,666541,13,"Korea, North"
Cameron Ratliff,(333) 714-8014,nunc.ullamcorper@yahoo.ca,Ap #913-4853 Magna Road,12497,19,Malawi
Daniel Miles,1-952-353-3170,ipsum.primis@protonmail.ca,567-3253 Erat. Avenue,991226,13,Mozambique
Hannah Dennis,1-801-933-1853,at@outlook.com,489-7927 Amet Road,3538,13,Turks and Caicos Islands
Aquila Blevins,(364) 417-6187,euismod.in@icloud.couk,834-6038 Quisque Street,57568,17,Suriname
Gil Ramsey,1-330-888-3925,sed@yahoo.ca,389-6391 Eu Ave,7252-6672,5,Nicaragua
Abel Vargas,1-266-214-7186,eleifend.egestas@protonmail.ca,"P.O. Box 552, 7508 Dolor, Ave",155699,5,Tonga
Hillary Munoz,1-394-426-4096,malesuada.vel@yahoo.com,"P.O. Box 596, 9748 Imperdiet Rd.",858545,3,Spain
Mason Shannon,(411) 621-2577,est.nunc@aol.ca,857-3064 Curabitur Rd.,3742 JB,3,Netherlands
Nichole Farrell,(867) 735-2782,eu.dolor.egestas@google.ca,Ap #143-7438 Feugiat Ave,20479,17,Saint Lucia
Zeph Rich,(570) 210-8685,suspendisse.commodo.tincidunt@aol.ca,233-1594 Donec St.,527888,3,Guyana
Isaiah Malone,1-776-592-9025,vel.turpis@hotmail.com,338-4942 Nulla St.,81-502,1,Tajikistan
Neve Pugh,1-202-731-1513,malesuada.integer.id@protonmail.net,5419 Curabitur Ave,81-38,17,Armenia
Uriel Hatfield,1-171-438-4668,suspendisse.aliquet@hotmail.net,9121 Diam St.,2888,11,Poland
Zephr Dorsey,(334) 495-9618,erat.volutpat.nulla@hotmail.ca,"P.O. Box 803, 2169 Lorem. St.",7548-8794,7,Niger
Thomas Hampton,1-587-231-4800,aliquam.iaculis@icloud.couk,770-5732 Lacus. Rd.,5818,3,Bahamas
Nadine Hess,1-974-728-3458,felis.donec@google.ca,729-604 At St.,87536,13,Nepal
Alice Simpson,1-555-767-7321,cras.pellentesque@hotmail.ca,Ap #697-2060 Libero. Ave,83684,9,Grenada
Rosalyn Wilkins,(212) 436-6816,non.hendrerit.id@hotmail.net,7229 Cursus Ave,3471-2072,7,South Georgia and The South Sandwich Islands
Oleg Dalton,1-512-636-9934,leo.in@aol.com,663-5746 Dis Street,3525,15,Hungary
Yardley Buckner,1-872-659-3106,molestie.dapibus@aol.org,524-6754 Mauris Av.,12801,9,Switzerland
Scott Roberts,(865) 279-2018,magnis.dis@hotmail.edu,Ap #720-5218 Amet Avenue,334795,13,Guam
Erin Shaw,(221) 620-6623,in.tempus.eu@protonmail.edu,4831 Commodo St.,38607,9,Cyprus
Uriah Kemp,1-517-653-3387,pede@outlook.net,"Ap #242-1901 Nec, Street",4351,9,Cambodia
Ifeoma Prince,1-175-851-9370,consectetuer.ipsum@aol.ca,278-1098 Eget Rd.,944595,1,Ireland
Tyler Mckinney,(776) 880-0800,velit.sed@hotmail.net,Ap #577-9643 Sed Street,49560,13,Samoa
Mason Farmer,1-735-645-8019,vel.mauris.integer@outlook.com,Ap #320-5987 Lacinia St.,55418-84681,19,Namibia
Gray Pate,(741) 663-2502,proin.dolor.nulla@icloud.org,Ap #355-9156 Donec Av.,665170,11,Spain
Guy Mcintosh,1-418-293-1538,pede.nunc@outlook.com,Ap #509-5235 In Avenue,35032,3,Burundi
Marsden Chavez,(421) 428-1451,fames@aol.com,874-2633 Lacus. Ave,44534,13,France
Josephine Gilmore,(855) 318-1270,pellentesque.sed@hotmail.couk,"P.O. Box 790, 8782 Mollis Rd.",877512,17,Yemen
Travis Boone,1-114-913-9777,in@google.couk,Ap #984-7292 Pellentesque Street,514281,3,Uganda
Yuli Velez,1-982-331-2497,nec.metus@icloud.org,"P.O. Box 429, 384 Accumsan St.",74G 6X5,19,Bulgaria
Deirdre Anderson,1-494-549-2266,vitae.orci.phasellus@hotmail.net,224-1178 Gravida St.,456332,11,Martinique
Gareth Robbins,1-864-335-2187,nec.cursus.a@hotmail.couk,4795 Aenean St.,41403,13,Saint Lucia
Xaviera Frost,1-581-423-9477,ultricies@aol.net,"Ap #991-6665 Id, Road",8418,11,Chad
Nathan Prince,1-443-471-6376,ac@aol.couk,6193 Quis St.,5616,11,Saint BarthÃ©lemy
Len Duke,(554) 445-6614,ante@icloud.ca,299-8247 Ligula Street,36822,13,Algeria
Judah Frederick,(562) 223-1605,ipsum@icloud.com,9708 Morbi Av.,5673,13,Suriname
Amelia Mccall,1-856-195-5628,quis.diam@aol.ca,"P.O. Box 538, 5842 Cras Road",88587-243,17,Belarus
Gillian Fitzgerald,(292) 337-2365,mollis.lectus.pede@google.edu,"P.O. Box 122, 8426 Phasellus Av.",78627,1,Cocos (Keeling) Islands
Shana Tucker,1-753-120-3685,odio.sagittis@outlook.com,Ap #934-7863 Nec St.,297705,1,Albania
Lacey Dennis,1-772-162-4373,ligula.nullam.feugiat@protonmail.ca,Ap #186-3468 Orci Rd.,673734,17,Libya
Risa Woodward,(933) 882-1762,iaculis.odio@google.ca,244-6837 A Avenue,64-46,5,Turkmenistan
Katell Powell,1-653-242-4829,ut.erat@google.ca,Ap #147-3401 Ut Rd.,417457,15,Tuvalu
Blythe Mcdonald,(443) 311-5386,aliquam.rutrum.lorem@outlook.couk,"276-4871 Lorem, Av.",30801,7,Philippines
Unity Hammond,(417) 824-2540,curabitur.ut@aol.ca,913 Ante Street,9589,7,British Indian Ocean Territory
Troy Juarez,1-354-356-6624,fermentum.convallis.ligula@outlook.org,"P.O. Box 707, 1189 Lobortis Rd.",41415,17,Macedonia
Chaney Wood,1-724-643-8777,nisl.elementum.purus@yahoo.com,"P.O. Box 341, 4552 Iaculis Rd.",24694,11,Haiti
Kareem Pickett,(734) 381-2065,sociis.natoque@aol.net,123-2073 Est Road,378838,9,Guyana
Jonah Mcclure,(747) 230-7908,aliquet.sem@yahoo.com,8108 Neque Street,36386,17,Denmark
Samuel Prince,1-604-652-1235,nibh.enim@google.com,3375 Malesuada Street,53812,15,Philippines
Dara Wade,1-952-824-5524,magnis.dis@icloud.org,443-4892 Quis Avenue,96434,5,"Saint Helena, Ascension and Tristan da Cunha"
Jaquelyn Brooks,(459) 773-7738,enim.suspendisse@icloud.couk,549-7350 Lorem Ave,398587,15,Gabon
Hanae Holman,(264) 888-3989,fringilla.porttitor@google.org,Ap #355-8171 Aenean Avenue,21278,5,Ukraine
Wyoming Chavez,(587) 385-1264,sagittis.lobortis@aol.com,"Ap #168-5416 Congue, Avenue",1527,5,Greece
Shelby Melendez,(747) 542-4316,in.faucibus@icloud.com,"P.O. Box 828, 116 Felis. Rd.",525183,7,Trinidad and Tobago
Allistair Dejesus,(966) 206-9533,aliquet.sem.ut@yahoo.edu,3012 Dui. Road,866422,9,Oman
Eagan Aguirre,1-134-197-4360,lacus.cras.interdum@google.com,Ap #320-9700 Ipsum Rd.,858714,1,Israel
Amery Juarez,(839) 376-5581,nisi.nibh.lacinia@google.ca,Ap #846-126 Et Ave,7305,1,Japan
Yetta Rojas,1-545-444-7133,elementum.sem@icloud.ca,123-5809 Conubia Ave,67346,15,Georgia
Nola Herring,(477) 773-0219,eu@yahoo.ca,Ap #560-3356 Lectus Road,82264,13,Panama
Tobias Peterson,(457) 302-5576,lectus.pede@outlook.org,Ap #964-5124 Ultrices Road,14-539,17,Germany
Garrison Wong,(466) 465-1537,vitae.orci@hotmail.net,Ap #968-5246 Cum Street,74215,15,Antigua and Barbuda
Amy Gardner,(817) 356-0782,eu.elit@google.net,9021 Magna. St.,773668,13,Puerto Rico
Patrick Whitney,1-202-738-6143,cursus.non.egestas@protonmail.com,"Ap #479-5835 Nec, Street",C9L 5HC,7,Kyrgyzstan
Irene Reese,(865) 462-5828,duis@protonmail.net,"Ap #389-1620 Pellentesque, Rd.",5202-9719,15,Grenada
Catherine Barlow,(253) 919-4055,porttitor@google.ca,973-5536 Diam St.,355877,7,Faroe Islands
Jayme Patel,1-506-451-6065,ultrices.duis@aol.org,4136 Dictum Ave,32929-74264,7,Cape Verde
Aspen Matthews,(200) 826-3767,et.malesuada.fames@hotmail.ca,307-5871 Vitae Avenue,3549,7,Suriname
Alfreda Mcfarland,1-472-347-9444,lacus.quisque.imperdiet@yahoo.ca,660-9077 Lectus Road,51853,7,Azerbaijan
Samuel Walsh,(832) 977-3586,nunc.lectus@yahoo.com,841-6913 Eu Road,QY4R 3JQ,19,Guyana
Beau Nunez,1-272-318-6337,mauris.quis.turpis@aol.ca,"P.O. Box 406, 4261 Cras Avenue",51573,11,Syria
Nash Bolton,1-875-236-3556,tellus.suspendisse.sed@outlook.net,Ap #837-8635 Enim Avenue,5855,9,Romania
Cade Tate,(641) 467-4718,fermentum.convallis@protonmail.net,Ap #245-9690 Sem Road,715186,13,Barbados
Lucas Sweeney,1-365-875-7489,aenean.eget.metus@hotmail.ca,9177 Felis Rd.,696332,5,Switzerland
Brenda Macias,(817) 772-4287,blandit@aol.com,Ap #292-6067 Metus Street,27572,19,Tajikistan
Ivy Armstrong,1-712-720-7485,et.ultrices@google.edu,"P.O. Box 590, 136 Dis Rd.",2257,1,"Saint Helena, Ascension and Tristan da Cunha"
Libby Hampton,(431) 718-4233,nulla.tempor.augue@icloud.edu,1429 Rutrum Street,87263,13,Bangladesh
Joy Sweeney,(366) 852-6386,dolor.elit@yahoo.ca,"P.O. Box 220, 3916 Suspendisse Street",48-566,5,Tuvalu
Ingrid Beasley,(276) 933-2473,non@hotmail.org,"4235 Nostra, St.",JM8H 4QE,13,Guam
Heidi Kim,1-754-238-6592,metus.aenean.sed@aol.couk,991-6377 Bibendum Avenue,37885,13,Maldives
Nayda Key,(644) 264-5671,vestibulum@google.couk,408-8251 Morbi Rd.,83136,9,Philippines
MacKensie Gamble,(320) 497-1441,ornare.libero@outlook.org,8039 Phasellus Road,3537,19,Estonia
Garrett Russo,(538) 251-1518,risus.donec.nibh@icloud.com,"Ap #255-3336 Ornare, Road",19451,5,Ghana
Timon Carter,(332) 661-4842,pede.nunc@google.ca,142-1506 Integer Avenue,522621,19,Zambia
Skyler Lawrence,1-373-452-2845,maecenas.libero.est@protonmail.edu,"P.O. Box 802, 8939 Donec Road",50217,7,"Korea, South"
Leandra Perry,1-548-832-0642,duis.ac@google.com,9946 Vel Av.,0116 QF,1,Belgium
Joshua Bullock,1-612-455-9674,cursus.luctus.ipsum@yahoo.couk,7355 Rhoncus. Rd.,13357,1,Sint Maarten
Jarrod Lester,(839) 974-6730,congue.turpis.in@aol.org,"P.O. Box 364, 7492 Eleifend Rd.",58493,13,Liberia
Brady Wooten,(740) 233-9140,arcu.morbi@outlook.net,Ap #317-5567 Ornare St.,5688-2269,17,Saint BarthÃ©lemy
Karina Sellers,(603) 414-1155,velit@protonmail.edu,670-4141 Aenean Rd.,5345,9,Micronesia
Evan Moran,(137) 724-4027,blandit@yahoo.com,"309-4499 Id, Road",3847,3,Libya
Patrick Whitfield,(530) 303-0879,nunc.ac@outlook.couk,"6808 Erat, St.",256526,13,Antigua and Barbuda
Kibo Hatfield,(874) 326-7883,justo.nec.ante@protonmail.ca,Ap #909-6419 Et St.,6621,11,Austria
Jeremy Peterson,1-578-395-5551,non@protonmail.ca,"P.O. Box 333, 1251 Suspendisse Av.",2331,17,Cocos (Keeling) Islands
Anthony Henry,(315) 427-6255,inceptos.hymenaeos.mauris@aol.org,4368 Lacinia Rd.,48248,19,Guyana
Keiko Bruce,1-454-191-4556,arcu.iaculis@google.edu,Ap #921-9222 Donec St.,73381,15,"Bonaire, Sint Eustatius and Saba"
Maya Jefferson,1-836-164-4377,elit.dictum@outlook.edu,Ap #774-3911 Cursus Rd.,583688,17,Switzerland
Nolan Gill,(310) 435-4326,arcu.vestibulum.ante@protonmail.org,"591-5359 Mauris, St.",592351,5,Myanmar
Ivy Thompson,1-442-521-8113,lorem.ac@icloud.net,Ap #904-8996 Consequat Rd.,21505,13,Antarctica
Sonia Tyson,1-728-975-1258,eget.odio.aliquam@yahoo.couk,166-9776 Et St.,7133,17,Sri Lanka
September Barber,(877) 784-2619,donec.elementum@hotmail.com,"Ap #134-6479 Ut, St.",1437 CJ,19,South Georgia and The South Sandwich Islands
Henry Macdonald,(566) 590-8124,id.blandit.at@yahoo.org,615-3200 Euismod Av.,55-59,1,Anguilla
Brenden Hendrix,1-659-572-1711,facilisis.eget@outlook.com,"P.O. Box 733, 4531 Nec Avenue",43575,13,French Guiana
Craig Little,1-263-262-9147,semper@protonmail.ca,427-8180 Duis St.,8977 LS,19,"Saint Helena, Ascension and Tristan da Cunha"
Finn Hensley,1-637-389-1447,consequat.lectus@icloud.ca,754-3130 Quisque Avenue,508523,1,Saudi Arabia
Ahmed Clayton,(763) 575-1608,scelerisque.neque.sed@hotmail.couk,Ap #291-3044 Tincidunt Road,1160 FQ,1,Niger
Piper Joyce,1-609-814-1534,sapien.imperdiet@icloud.org,Ap #654-6780 Phasellus St.,7118 OZ,13,Madagascar
Tyrone Guy,(405) 922-5757,convallis.convallis@icloud.edu,Ap #255-7401 Morbi Street,632456,9,Rwanda
Elton Suarez,1-335-673-1334,tellus.aenean.egestas@protonmail.edu,790-1070 Eget St.,22213,5,Algeria
Harrison Keith,(368) 932-2142,erat.vivamus@protonmail.ca,Ap #318-3700 Pede. Street,39308,13,Jamaica
Zeph Wolfe,1-344-262-1787,libero@outlook.couk,185-6833 Justo. Rd.,45686,19,Nauru
Sandra Crawford,1-653-337-9953,et.pede@hotmail.org,447-4916 Senectus Street,3764,11,Anguilla
Thor Wilson,1-973-344-6768,sed@protonmail.org,9655 Dictum. Rd.,S6S 7J3,13,Denmark
Orli Jefferson,1-367-141-5369,consectetuer.ipsum@google.couk,4369 Mi St.,38106,17,Heard Island and Mcdonald Islands
Hayes Nieves,(832) 532-3151,velit.dui@aol.org,4808 Eu Street,35564,11,Sri Lanka
Bruce Christensen,(673) 246-6872,phasellus.fermentum.convallis@icloud.org,Ap #588-2126 Risus. Avenue,7641 NW,17,Norfolk Island
Oprah Ballard,(338) 768-6540,a.enim.suspendisse@icloud.com,Ap #794-7737 Molestie Road,6913,13,Saint Kitts and Nevis
Travis Craft,1-271-374-5241,integer.vitae@outlook.ca,"P.O. Box 941, 3006 Sagittis St.",22-44,5,Jamaica
Isabella Waters,(968) 472-0984,at.iaculis@hotmail.com,129-8426 Sapien St.,467019,9,Afghanistan
Wang Patton,1-249-331-2587,elit.pellentesque.a@google.ca,"9522 Dui, St.",6942 IK,3,Rwanda
Chastity Graves,(787) 787-0165,adipiscing.fringilla@yahoo.org,Ap #651-6729 Dis Ave,761262,7,Guinea-Bissau
Aimee Coleman,(705) 712-7835,magna.ut.tincidunt@google.ca,2735 Risus. St.,7158,19,Equatorial Guinea
Nathan White,(487) 727-6316,nunc.ut.erat@protonmail.net,863-6957 Augue St.,UX7 1DB,15,Japan
Callum Mueller,1-667-247-6267,orci@outlook.net,4807 Ornare Street,5426,3,Kyrgyzstan
Hilary Short,1-691-316-7552,ornare.egestas@icloud.org,"P.O. Box 107, 5832 Eu St.",128366,5,Togo
Branden Spence,(778) 280-1277,odio.sagittis.semper@protonmail.couk,435-452 Dui. St.,4040,1,Bulgaria
Jasper Stein,1-643-433-5670,ut@outlook.org,9717 Risus Rd.,885046,19,Tokelau
Medge Abbott,1-441-772-0738,luctus.lobortis.class@yahoo.com,Ap #925-2946 Quisque St.,86426-48276,15,Isle of Man
Lee Marshall,1-805-615-4444,amet.risus@google.couk,5064 Mauris Street,570988,19,Mauritania
Charles Raymond,1-327-532-2533,aliquam.fringilla@hotmail.com,870-7414 Dolor. Av.,52431,19,Angola
Calvin Carlson,(943) 852-1747,metus.eu@protonmail.ca,"P.O. Box 249, 239 Aenean St.",329615,15,Antarctica
Autumn Bennett,(450) 132-5399,id.blandit.at@icloud.edu,Ap #321-5993 Eu St.,6262 BI,19,"Korea, South"
Tanner Erickson,1-583-287-8378,tortor.nibh@outlook.edu,"424-9366 Id, Road",738417,1,Brunei
Zane Mercer,1-598-348-4931,erat.vivamus.nisi@google.org,Ap #349-1556 Felis St.,84-833,7,Argentina
Hall Sosa,(315) 608-8649,odio.vel@yahoo.edu,2249 A Rd.,62235,19,Suriname
Venus Bond,(781) 491-8366,lobortis.class@outlook.net,Ap #716-2380 Cras Ave,37238,1,Bulgaria
Sybil Benjamin,(775) 266-6033,nulla.facilisis@protonmail.com,934-5858 Nulla. Rd.,0881 EP,13,Serbia
Rigel Huffman,(555) 738-2647,curabitur.sed@hotmail.net,Ap #156-8963 Tincidunt Street,442902,17,Saint BarthÃ©lemy
Paul Rivas,1-338-403-6674,phasellus.libero@aol.edu,Ap #503-819 Ipsum Rd.,37078,9,Bhutan
Abdul Carson,1-598-478-5904,pellentesque.massa@icloud.ca,775-5952 Purus Rd.,5822,1,Bangladesh
Patience Allison,(611) 574-4191,mauris.a@hotmail.org,"P.O. Box 752, 1767 Tristique Rd.",355792,3,Puerto Rico
Yetta Byrd,(442) 484-7117,ante.maecenas.mi@aol.org,Ap #336-315 Ac St.,1163,3,Faroe Islands
Samantha Parsons,1-944-428-3857,turpis.egestas.aliquam@protonmail.com,Ap #754-5337 Donec Rd.,3528,5,"Bonaire, Sint Eustatius and Saba"
Kalia Cannon,(457) 626-4528,posuere@yahoo.couk,759-9256 Velit. Rd.,7584,1,Svalbard and Jan Mayen Islands
Uriah Sherman,1-496-602-1212,nulla@google.org,6339 Nulla St.,41-222,13,Togo
Maxine Henson,(776) 711-5546,sollicitudin.a@hotmail.org,"Ap #361-3802 Vitae, Rd.",16698,11,Marshall Islands
Gloria Wells,(315) 726-9537,tortor.at.risus@outlook.ca,"662-8619 Non, Rd.",11613,9,Greenland
Sonya Hutchinson,1-147-843-9083,magna.cras@aol.net,Ap #635-5685 Eu Road,57201,5,Somalia
Evangeline Farmer,1-517-496-6368,suspendisse.ac@google.net,349 Neque St.,3332-5637,15,Namibia
Libby Atkins,1-358-821-2861,mauris.ut@yahoo.couk,"P.O. Box 800, 1194 Urna Street",8240-8590,13,Belgium
Dale Maldonado,(802) 126-2695,libero.donec@outlook.net,Ap #368-4207 Rutrum Av.,43616,11,Jamaica
Cullen Drake,1-614-237-1734,lectus.a@hotmail.org,"P.O. Box 265, 4233 Egestas Rd.",63079,15,Guatemala
Lars Cook,1-391-713-1345,sociosqu.ad@protonmail.couk,356-5625 Mollis Rd.,51924,11,"Korea, North"
Autumn Schroeder,1-295-218-7237,risus.donec.nibh@hotmail.com,"P.O. Box 399, 4852 Libero Av.",29881,17,Central African Republic
Octavia Johnston,(264) 326-8484,nec@protonmail.edu,747-1157 Quam Av.,11754,11,Antarctica
Kasimir Larson,1-994-244-9438,mauris.eu.elit@aol.edu,"P.O. Box 753, 1624 Dui Av.",30786,5,Faroe Islands
Moses Mccarty,(441) 458-4106,vitae@aol.com,9606 Convallis Rd.,19134,11,Anguilla
Sylvester Velazquez,1-652-914-2144,sodales.at@yahoo.org,4117 Auctor Rd.,32-204,7,Niger
Hayden Reyes,1-428-250-2364,sed@aol.edu,Ap #379-6599 Aliquam Ave,81858,15,Panama
Ainsley Gray,1-777-641-4242,orci.tincidunt.adipiscing@outlook.couk,916-6740 Cras Street,193137,7,Guatemala
Lacy Webster,1-616-416-3478,fermentum@google.ca,Ap #380-9618 Interdum Street,10949,11,Pitcairn Islands
Quynn Booker,1-184-868-5021,dictum@outlook.ca,Ap #862-9881 Sodales Rd.,T6 7JW,13,CÃ´te D'Ivoire (Ivory Coast)
Thaddeus Hodges,(354) 750-5578,sed@outlook.couk,7750 Vitae Av.,7547,13,Australia
Lael Beasley,1-320-486-5422,nisi.nibh.lacinia@aol.couk,"Ap #222-414 Et, Rd.",650832,3,Ecuador
Blake Holman,1-552-836-3278,in@protonmail.edu,"P.O. Box 792, 6100 Tempus Ave",3966,5,Heard Island and Mcdonald Islands
Leo Delgado,1-821-854-5535,molestie@icloud.com,9054 In Street,11710,19,Namibia
Xander Jacobson,1-135-114-8361,ut.odio.vel@hotmail.org,Ap #827-376 Urna. St.,65271,7,Costa Rica
Marshall Beck,1-630-154-6296,interdum@hotmail.net,Ap #546-7954 Eleifend Av.,25271,17,Faroe Islands
Leigh Caldwell,(671) 213-7634,in@yahoo.couk,"P.O. Box 589, 1529 Ligula. Avenue",3934,19,Antarctica
Lester Daugherty,(483) 579-8347,elit@outlook.com,"P.O. Box 654, 8638 Ut Street",495472,1,Cameroon
Desirae Mccoy,(492) 878-5814,magna.ut@outlook.net,564-3544 Pretium Rd.,51109,15,Honduras
Keely Frost,1-386-741-3927,id.risus@icloud.edu,"Ap #879-9405 Ac, Av.",171526,11,Brunei
Vivian Adkins,(333) 307-2123,aenean.gravida@protonmail.ca,Ap #353-232 Nam Road,5715,13,Bangladesh
Harlan Lyons,(725) 664-4164,quis@google.edu,4427 Fusce Rd.,57467,15,Liberia
Fatima Kinney,(588) 652-7372,laoreet.lectus@protonmail.com,"P.O. Box 165, 2648 Suscipit, Rd.",4443,19,Montenegro
Thor Conrad,1-467-453-2963,dapibus.rutrum@hotmail.net,Ap #358-7076 Turpis St.,7014,19,Peru
Freya Wells,1-423-536-7594,risus.donec.nibh@outlook.ca,"134-4666 Magna, Rd.",223687,17,Croatia
Quinlan Maldonado,(581) 232-2108,non.lobortis.quis@aol.ca,774-3077 Et St.,45365,15,Bahrain
Ivy Golden,1-351-366-6295,aliquet.magna.a@yahoo.com,692-7167 Elit. Avenue,889965,9,CuraÃ§ao
Lesley Holcomb,(337) 785-7112,dictum@yahoo.com,"P.O. Box 378, 1989 Interdum Rd.",780068,11,Cameroon
Honorato Boone,(966) 666-7340,auctor.mauris.vel@icloud.org,Ap #912-7930 Diam. Road,1757,11,Turkey
Jessamine Castro,1-414-462-4117,proin@google.couk,126-3605 Quisque St.,301678,9,Albania
Evelyn Fuentes,1-526-325-6766,dolor.fusce@hotmail.com,"1806 Non, St.",1647-4936,19,Guinea
Leila Donovan,(814) 476-2639,litora.torquent.per@yahoo.couk,"P.O. Box 596, 8419 Nunc Avenue",S0H 3VL,17,Qatar
Walker Blanchard,1-726-273-8114,arcu.eu@aol.edu,975-8808 Amet St.,846322,3,Ethiopia
Emerald Beach,(350) 578-8360,vestibulum.ante@icloud.net,Ap #286-5169 Libero. Rd.,4298,19,Guam
Sasha Brennan,(504) 618-6702,ullamcorper.duis.cursus@aol.org,"984-744 Leo, Street",8747,7,Germany
Bell Watkins,1-644-378-5337,luctus.aliquet@hotmail.ca,"395-9481 Sed, Av.",7361,11,Denmark
Nathaniel Ferrell,1-342-285-6372,aliquam.adipiscing@yahoo.com,396-7292 A St.,2323,13,Afghanistan
MacKenzie Washington,(506) 989-2355,neque.sed@icloud.com,"Ap #718-1085 Mauris, Ave",86962,3,Qatar
Brenna Sellers,(825) 562-9607,fringilla.purus.mauris@yahoo.org,Ap #884-2678 Aliquam Road,537562,1,Macao
Iliana Whitley,(245) 768-6566,vulputate@icloud.org,Ap #332-3973 Nisl Road,8184,7,Macedonia
Mark Marks,1-343-256-6809,justo.eu@hotmail.couk,"P.O. Box 133, 1352 Enim St.",6761,5,Puerto Rico
Rana Mckinney,1-650-878-3585,dui.semper.et@icloud.edu,"422-3492 Amet, Street",1164,5,Senegal
Bruce Allison,(518) 205-6687,risus.duis.a@aol.net,626-5884 Interdum Rd.,38816,11,Djibouti
Samuel Joseph,(293) 332-9434,ut.nec@protonmail.com,Ap #645-3912 Nibh Ave,860297,17,Jamaica
Cody Graves,(251) 628-9169,donec.porttitor@outlook.ca,8761 Dui. Street,66-988,15,Slovakia
Cooper Ware,1-477-182-2848,imperdiet.nec.leo@google.edu,2890 Eu Rd.,17346,11,Guatemala
Uma Frederick,(352) 810-1162,vulputate@outlook.ca,"427-8819 Eget, Street",5851,3,Argentina
Elvis Ingram,1-485-861-7141,at.libero@aol.net,900-4636 Feugiat. St.,15883,11,Madagascar
Peter Summers,1-745-589-7311,augue.porttitor@google.org,Ap #280-934 Eleifend Ave,5604,9,Saint BarthÃ©lemy
Yolanda Mays,(362) 646-5616,maecenas.malesuada.fringilla@yahoo.com,Ap #220-7694 Maecenas Road,4625,19,Mauritius
Portia Sellers,(291) 849-7257,integer.vulputate@outlook.net,928-8084 Lobortis St.,62156,3,Uganda
Raja Whitley,1-616-992-2274,non.sollicitudin@outlook.com,Ap #504-2311 Donec Street,M7W 7H7,5,Falkland Islands
Phillip Perez,1-333-668-8666,ligula.donec@protonmail.net,9739 Ut Road,2146,11,Barbados
Connor Roberts,1-124-541-3378,lectus.rutrum@icloud.net,Ap #309-935 Lobortis. Street,7465,13,Canada
Garth Herrera,(709) 224-4487,nulla@google.org,279-1002 Mollis Road,8768,19,Somalia
Bertha Sheppard,(751) 258-9778,vel.nisl@yahoo.net,1776 Cras Rd.,23697,19,Kiribati
Alden Hammond,1-397-478-5508,ornare.tortor@yahoo.edu,"P.O. Box 424, 3843 Egestas. Rd.",12T 8E4,13,Bahamas
Lydia Matthews,(141) 584-7987,et.euismod@icloud.ca,Ap #759-7761 Commodo Av.,X12 6EI,3,Western Sahara
Ruby Ball,(110) 477-9016,vitae.sodales@aol.ca,895-2426 Porttitor Street,93145,19,Mongolia
Ralph Zamora,1-636-997-2707,enim.mauris.quis@yahoo.couk,"9262 Vestibulum, Rd.",5161,17,Armenia
Unity Brown,(340) 766-3545,duis@icloud.org,886-3611 Neque Avenue,88131-31203,15,Serbia
Alfreda Holman,1-587-252-8543,nunc.ac.sem@hotmail.net,"Ap #893-4753 Ornare, St.",8456,17,Greenland
Solomon Douglas,1-876-607-2256,eros.proin@aol.com,"P.O. Box 348, 4819 Suspendisse St.",881212,1,Sweden
Clare Waters,(535) 580-3418,augue.malesuada@outlook.edu,Ap #902-2165 Eu St.,A40 9ZD,7,Cocos (Keeling) Islands
Laith Wagner,(478) 821-3738,elementum.dui@google.couk,"811-7789 Ornare, Street",8059,5,Colombia
Salvador Durham,1-741-404-9327,ac@aol.couk,635-1750 Eleifend Road,60206,3,Zimbabwe
Ian Mack,1-130-133-7194,natoque.penatibus@icloud.edu,711-4838 Litora Road,662215,19,Bahamas
Hakeem Cobb,1-520-878-5675,lorem.ipsum@aol.ca,"P.O. Box 929, 163 Sem. Rd.",86200,5,Niue
Francis Townsend,1-504-785-1002,vitae.sodales.at@aol.ca,Ap #489-8389 Erat Road,580746,3,Antigua and Barbuda
Dolan Frye,1-253-548-5652,ac.risus@google.ca,"P.O. Box 850, 7927 Montes, St.",52633,11,Algeria
Shad Brooks,1-444-541-8487,ultrices.iaculis@google.com,"P.O. Box 885, 1394 Ut, St.",83762,9,South Sudan
Lysandra Rollins,1-852-454-4953,quis.urna@google.edu,"P.O. Box 398, 2738 Eu Road",88454,17,Gibraltar
Troy Aguilar,(226) 582-2354,gravida.sagittis@outlook.ca,742-1906 A St.,372817,9,"Korea, North"
Kirby Levy,1-504-471-7085,vulputate.mauris@yahoo.ca,Ap #633-6357 Augue Road,6309,7,United Arab Emirates
Nora Allison,1-665-477-4178,in.faucibus.orci@hotmail.org,432-7122 Eu Avenue,529270,19,Gambia
Vivian O'donnell,(545) 485-5421,eu@yahoo.com,Ap #379-2350 Quisque Rd.,13256,7,Heard Island and Mcdonald Islands
Portia Gentry,(658) 443-8791,donec@yahoo.org,Ap #841-6696 Consectetuer Avenue,176828,1,Macao
